SITRO-AIS 52            
1 59063U 24039N   24134.86342181  .00028742  00000+0  10930-2 0  9995
2 59063  97.3906  97.2498 0016377 348.8831  11.2044 15.26610761 11365
SITRO-AIS 25            
1 59066U 24039R   24134.85604333  .00008670  00000+0  83174-3 0  9996
2 59066  95.4021  74.1197 0175746 100.8921 261.2129 14.82222024 11023
SITRO-AIS 26            
1 59067U 24039S   24134.85530648  .00007828  00000+0  75162-3 0  9996
2 59067  95.4020  74.1198 0175559 100.9220 261.1807 14.82224489 11028
SITRO-AIS 27            
1 59068U 24039T   24134.84953012  .00008814  00000+0  84360-3 0  9996
2 59068  95.4023  74.1273 0175305 100.7989 261.3017 14.82353864 11020
SITRO-AIS 28            
1 59071U 24039U   24134.84782282  .00008766  00000+0  83867-3 0  9996
2 59071  95.4023  74.1296 0175172 100.7950 261.3041 14.82384947 11022
